SKYSAT-C4               
1 41771U 16058B   26160.06040958  .00014214  00000+0  27037-3 0  9990
2 41771  96.9184 182.1740 0000834 101.4915 258.6430 15.48332231544214
SKYSAT-C5               
1 41772U 16058C   26160.08260490  .00006409  00000+0  19490-3 0  9999
2 41772  97.0478 201.0848 0001962   2.7581 357.3674 15.34353209542508
SKYSAT-C2               
1 41773U 16058D   26160.01779892  .00010553  00000+0  25029-3 0  9994
2 41773  97.0174 182.4213 0005088  87.9242 272.2588 15.41883308543799
SKYSAT-C3               
1 41774U 16058E   26160.08580522  .00018301  00000+0  30335-3 0  9997
2 41774  96.9014 191.2470 0001881  82.3638 277.7830 15.52190679544851
ALSAT-1B                
1 41785U 16059C   26160.22048845  .00000619  00000+0  10541-3 0  9993
2 41785  97.7756 169.3282 0007740 250.8618 109.1753 14.72269973519402
PATHFINDER 1            
1 41787U 16059E   26159.88710632  .00000574  00000+0  10855-3 0  9993
2 41787  97.8166 159.5379 0027241 230.9268 128.9513 14.67653878518492
SCATSAT 1               
1 41790U 16059H   26160.09759400  .00000912  00000+0  12672-3 0  9993
2 41790  98.1193 223.7802 0053286 274.2509  85.2613 14.79508321100399
GOKTURK 1A              
1 41875U 16073A   26160.17405155  .00000587  00000+0  12421-3 0  9997
2 41875  98.1255  54.9735 0001468  76.5660 283.5705 14.62769921507659
RESOURCESAT-2A          
1 41877U 16074A   26160.18799329  .00000293  00000+0  15365-3 0  9994
2 41877  98.7521 233.7574 0003344  98.7034 261.4522 14.21614438493166
CARTOSAT-2D             
1 41948U 17008A   26160.18910425  .00004205  00000+0  20257-3 0  9996
2 41948  97.4107 219.6442 0003611 267.4204  92.6618 15.19272439516366
SENTINEL-2B             
1 42063U 17013A   26160.16552436  .00000135  00000+0  68312-4 0  9996
2 42063  98.5686 235.0529 0001208  85.4082 274.7239 14.30815014483492
CARTOSAT-2E             
1 42767U 17036C   26160.20670461  .00004519  00000+0  21755-3 0  9995
2 42767  97.4277 220.1401 0003023 356.2396   3.8816 15.19262451496939
FORMOSAT-5              
1 42920U 17049A   26160.19107403  .00000144  00000+0  47609-4 0  9996
2 42920  98.2253 235.6783 0012667 106.3727 253.8862 14.50895902465518
SENTINEL-5P             
1 42969U 17064A   26160.09598750  .00000046  00000+0  43067-4 0  9999
2 42969  98.7924 102.2849 0000995  81.5222 278.6066 14.19517621448413
SKYSAT-C11              
1 42987U 17068A   26160.15576648  .00024174  00000+0  33007-3 0  9992
2 42987  97.4341 308.6409 0001031  87.8492 272.2882 15.57476296481997
SKYSAT-C10              
1 42988U 17068B   26159.88065943  .00008797  00000+0  26564-3 0  9995
2 42988  97.4493 296.6487 0001244  90.0807 270.0578 15.34497586481088
SKYSAT-C9               
1 42989U 17068C   26160.12450959  .00011415  00000+0  27519-3 0  9992
2 42989  97.4414 297.7531 0009030 158.8719 201.2902 15.41360545481517
SKYSAT-C8               
1 42990U 17068D   26160.12502461  .00009342  00000+0  26189-3 0  9998
2 42990  97.4510 296.6646 0001574  98.3915 261.7507 15.36816648481079
SKYSAT-C7               
1 42991U 17068E   26160.18348745  .00009573  00000+0  26857-3 0  9996
2 42991  97.4520 297.7129 0007035 130.1324 230.0538 15.36766119481144
SKYSAT-C6               
1 42992U 17068F   26160.12407215  .00008110  00000+0  24839-3 0  9993
2 42992  97.4556 297.6518 0003979 158.9117 201.2290 15.34069689481080
CARTOSAT-2F             
1 43111U 18004A   26159.44816360  .00005190  00000+0  24903-3 0  9993
2 43111  97.4787 219.1684 0000041 272.9757  87.1473 15.19309472466006
GAOFEN-1 02             
1 43259U 18031A   26160.16601545  .00000783  00000+0  11989-3 0  9997
2 43259  98.0526 222.7152 0004321  51.0780 309.0814 14.76471418441510
GAOFEN-1 03             
1 43260U 18031B   26160.21196975  .00000612  00000+0  95397-4 0  9998
2 43260  98.0525 222.6203 0003824  94.8747 265.2899 14.76457445441512
GAOFEN-1 04             
1 43262U 18031D   26160.18768873  .00000462  00000+0  73831-4 0  9990
2 43262  98.0526 222.7857 0002222  89.9207 270.2257 14.76467211441503
SENTINEL-3B             
1 43437U 18039A   26160.19489507  .00000093  00000+0  56315-4 0  9995
2 43437  98.6249 227.8417 0000843  78.6879 281.4396 14.26739527422986
GAOFEN-5 01             
1 43461U 18043A   26160.18362404  .00000311  00000+0  74008-4 0  9994
2 43461  98.4565 131.6020 0003038  97.8275 262.3270 14.60599931430525
GAOFEN-6                
1 43484U 18048A   26160.07493644  .00000804  00000+0  12207-3 0  9992
2 43484  97.7757 223.0567 0011378 194.8499 165.2379 14.76624228432190
GAOFEN-11 01            
1 43585U 18063A   26160.19469016  .00013371  00000+0  20035-3 0  9991
2 43585  97.1296 227.0973 0003971  26.4689 333.6768 15.55058171439107
ICESAT-2                
1 43613U 18070A   26160.16652808  .00009064  00000+0  32906-3 0  9995
2 43613  92.0067 288.8134 0005314 117.6487 242.5302 15.28273728431230
HYSIS                   
1 43719U 18096A   26160.15883885  .00001465  00000+0  20695-3 0  9999
2 43719  97.9838 226.9695 0001704 111.1403 248.9990 14.78681339406238
KAZSTSAT                
1 43783U 18099AB  26160.09170384  .00001162  00000+0  98271-4 0  9999
2 43783  97.4264 192.3885 0007920  90.8031 269.4101 14.99843069410094
