OBJECT_NAME,OBJECT_ID,EPOCH,MEAN_MOTION,ECCENTRICITY,INCLINATION,RA_OF_ASC_NODE,ARG_OF_PERICENTER,MEAN_ANOMALY,EPHEMERIS_TYPE,CLASSIFICATION_TYPE,NORAD_CAT_ID,ELEMENT_SET_NO,REV_AT_EPOCH,BSTAR,MEAN_MOTION_DOT,MEAN_MOTION_DDOT
SKYSAT-C4,2016-058B,2026-06-09T01:26:59.387712,15.48332231,.0000834,96.9184,182.1740,101.4915,258.6430,0,U,41771,999,54421,.27037E-3,.14214E-3,0
SKYSAT-C5,2016-058C,2026-06-09T01:58:57.063360,15.34353209,.0001962,97.0478,201.0848,2.7581,357.3674,0,U,41772,999,54250,.1949E-3,.6409E-4,0
SKYSAT-C2,2016-058D,2026-06-09T00:25:37.826688,15.41883308,.0005088,97.0174,182.4213,87.9242,272.2588,0,U,41773,999,54379,.25029E-3,.10553E-3,0
SKYSAT-C3,2016-058E,2026-06-09T02:03:33.571008,15.52190679,.0001881,96.9014,191.2470,82.3638,277.7830,0,U,41774,999,54485,.30335E-3,.18301E-3,0
ALSAT-1B,2016-059C,2026-06-09T05:17:30.202080,14.72269973,.000774,97.7756,169.3282,250.8618,109.1753,0,U,41785,999,51940,.10541E-3,.619E-5,0
PATHFINDER 1,2016-059E,2026-06-08T21:17:25.986048,14.67653878,.0027241,97.8166,159.5379,230.9268,128.9513,0,U,41787,999,51849,.10855E-3,.574E-5,0
SCATSAT 1,2016-059H,2026-06-09T02:20:32.121600,14.79508321,.0053286,98.1193,223.7802,274.2509,85.2613,0,U,41790,999,10039,.12672E-3,.912E-5,0
GOKTURK 1A,2016-073A,2026-06-09T04:10:38.053920,14.62769921,.0001468,98.1255,54.9735,76.5660,283.5705,0,U,41875,999,50765,.12421E-3,.587E-5,0
RESOURCESAT-2A,2016-074A,2026-06-09T04:30:42.620256,14.21614438,.0003344,98.7521,233.7574,98.7034,261.4522,0,U,41877,999,49316,.15365E-3,.293E-5,0
CARTOSAT-2D,2017-008A,2026-06-09T04:32:18.607200,15.19272439,.0003611,97.4107,219.6442,267.4204,92.6618,0,U,41948,999,51636,.20257E-3,.4205E-4,0
SENTINEL-2B,2017-013A,2026-06-09T03:58:21.304704,14.30815014,.0001208,98.5686,235.0529,85.4082,274.7239,0,U,42063,999,48349,.68312E-4,.135E-5,0
CARTOSAT-2E,2017-036C,2026-06-09T04:57:39.278304,15.19262451,.0003023,97.4277,220.1401,356.2396,3.8816,0,U,42767,999,49693,.21755E-3,.4519E-4,0
FORMOSAT-5,2017-049A,2026-06-09T04:35:08.796192,14.50895902,.0012667,98.2253,235.6783,106.3727,253.8862,0,U,42920,999,46551,.47609E-4,.144E-5,0
SENTINEL-5P,2017-064A,2026-06-09T02:18:13.320000,14.19517621,.0000995,98.7924,102.2849,81.5222,278.6066,0,U,42969,999,44841,.43067E-4,.46E-6,0
SKYSAT-C11,2017-068A,2026-06-09T03:44:18.223872,15.57476296,.0001031,97.4341,308.6409,87.8492,272.2882,0,U,42987,999,48199,.33007E-3,.24174E-3,0
SKYSAT-C10,2017-068B,2026-06-08T21:08:08.974752,15.34497586,.0001244,97.4493,296.6487,90.0807,270.0578,0,U,42988,999,48108,.26564E-3,.8797E-4,0
SKYSAT-C9,2017-068C,2026-06-09T02:59:17.628576,15.41360545,.000903,97.4414,297.7531,158.8719,201.2902,0,U,42989,999,48151,.27519E-3,.11415E-3,0
SKYSAT-C8,2017-068D,2026-06-09T03:00:02.126304,15.36816648,.0001574,97.4510,296.6646,98.3915,261.7507,0,U,42990,999,48107,.26189E-3,.9342E-4,0
SKYSAT-C7,2017-068E,2026-06-09T04:24:13.315680,15.36766119,.0007035,97.4520,297.7129,130.1324,230.0538,0,U,42991,999,48114,.26857E-3,.9573E-4,0
SKYSAT-C6,2017-068F,2026-06-09T02:58:39.833760,15.34069689,.0003979,97.4556,297.6518,158.9117,201.2290,0,U,42992,999,48108,.24839E-3,.811E-4,0
CARTOSAT-2F,2018-004A,2026-06-08T10:45:21.335040,15.19309472,.00000418,97.4787,219.1684,272.9757,87.1473,0,U,43111,999,46600,.24903257E-3,.519E-4,0
GAOFEN-1 02,2018-031A,2026-06-09T03:59:03.734880,14.76471418,.0004321,98.0526,222.7152,51.0780,309.0814,0,U,43259,999,44151,.11989E-3,.783E-5,0
GAOFEN-1 03,2018-031B,2026-06-09T05:05:14.186400,14.76457445,.0003824,98.0525,222.6203,94.8747,265.2899,0,U,43260,999,44151,.95397E-4,.612E-5,0
GAOFEN-1 04,2018-031D,2026-06-09T04:30:16.306272,14.76467211,.0002222,98.0526,222.7857,89.9207,270.2257,0,U,43262,999,44150,.73831E-4,.462E-5,0
SENTINEL-3B,2018-039A,2026-06-09T04:40:38.934048,14.26739527,.0000843,98.6249,227.8417,78.6879,281.4396,0,U,43437,999,42298,.56315E-4,.93E-6,0
GAOFEN-5 01,2018-043A,2026-06-09T04:24:25.117056,14.60599931,.0003038,98.4565,131.6020,97.8275,262.3270,0,U,43461,999,43052,.74008E-4,.311E-5,0
GAOFEN-6,2018-048A,2026-06-09T01:47:54.508416,14.76624228,.0011378,97.7757,223.0567,194.8499,165.2379,0,U,43484,999,43219,.12207E-3,.804E-5,0
GAOFEN-11 01,2018-063A,2026-06-09T04:40:21.229824,15.55058171,.0003971,97.1296,227.0973,26.4689,333.6768,0,U,43585,999,43910,.20035E-3,.13371E-3,0
ICESAT-2,2018-070A,2026-06-09T03:59:48.026112,15.28273728,.0005314,92.0067,288.8134,117.6487,242.5302,0,U,43613,999,43123,.32906E-3,.9064E-4,0
HYSIS,2018-096A,2026-06-09T03:48:43.676640,14.78681339,.0001704,97.9838,226.9695,111.1403,248.9990,0,U,43719,999,40623,.20695E-3,.1465E-4,0
KAZSTSAT,2018-099AB,2026-06-09T02:12:03.211776,14.99843069,.000792,97.4264,192.3885,90.8031,269.4101,0,U,43783,999,41009,.98271E-4,.1162E-4,0
